OBJECT_NAME,OBJECT_ID,EPOCH,MEAN_MOTION,ECCENTRICITY,INCLINATION,RA_OF_ASC_NODE,ARG_OF_PERICENTER,MEAN_ANOMALY,EPHEMERIS_TYPE,CLASSIFICATION_TYPE,NORAD_CAT_ID,ELEMENT_SET_NO,REV_AT_EPOCH,BSTAR,MEAN_MOTION_DOT,MEAN_MOTION_DDOT
STARLINK-6378,2023-099V,2026-06-25T13:24:42.270048,15.27584357,.00011556,43.0032,6.6222,270.5264,89.5455,0,U,57347,999,16253,-.28422966E-4,-.1044E-4,0
STARLINK-6372,2023-099W,2026-06-25T13:44:38.158368,15.27583077,.00017665,43.0057,359.9034,267.4790,92.5859,0,U,57348,999,16261,.81686589E-4,.1986E-4,0
STARLINK-6376,2023-099X,2026-06-25T05:20:30.467904,15.27592773,.00020743,43.0059,1.5790,296.5791,63.4848,0,U,57349,999,16328,.8832543E-4,.217E-4,0
STARLINK-6362,2023-099Y,2026-06-25T13:16:22.478880,15.27585051,.00018432,43.0057,352.7001,272.8643,87.1998,0,U,57350,999,16268,-.91601598E-4,-.2783E-4,0
STARLINK-6331,2023-099Z,2026-06-25T12:49:06.454272,15.27579196,.00013801,43.0038,359.6143,268.0209,92.0485,0,U,57351,999,16261,.40494292E-4,.852E-5,0
STARLINK-6297,2023-099AA,2026-06-25T13:07:08.768064,15.27568729,.00017699,43.0054,352.6516,274.4540,85.6109,0,U,57352,999,16269,-.12521251E-4,-.607E-5,0
STARLINK-6324,2023-099AB,2026-06-25T13:20:33.979776,15.27583501,.00012267,43.0056,359.7776,268.7872,91.2839,0,U,57353,999,16261,-.33459284E-4,-.1183E-4,0
STARLINK-6293,2023-099AC,2026-06-25T13:03:25.208928,15.27576849,.00015729,43.0039,352.6263,270.3612,89.7059,0,U,57354,999,16269,.43047262E-4,.922E-5,0
STARLINK-6276,2023-099AD,2026-06-25T12:02:32.823456,15.27593721,.00014822,43.0036,353.1692,276.6718,83.3965,0,U,57355,999,16268,.71145991E-4,.1697E-4,0
STARLINK-6355,2023-099AE,2026-06-25T11:49:37.209792,15.27570934,.00015857,43.0045,353.0999,263.1862,96.8809,0,U,57356,999,16268,.47151217E-4,.1035E-4,0
STARLINK-5600,2023-099AF,2026-06-25T12:41:12.933888,15.27580386,.00012693,43.0045,352.5141,269.5247,90.5459,0,U,57357,999,16269,.36092623E-4,.731E-5,0
STARLINK-6299,2023-099AG,2026-06-25T12:11:36.648384,15.27594942,.00013677,43.0025,352.3677,263.0015,97.0681,0,U,57358,999,16343,.67147651E-4,.1587E-4,0
STARLINK-6347,2023-099AH,2026-06-25T05:20:04.425216,15.27560538,.00021163,43.0051,354.5159,284.8696,75.1921,0,U,57359,999,16264,-.12810291E-3,-.3784E-4,0
STARLINK-6348,2023-099AJ,2026-06-25T04:31:56.135424,15.27568307,.00013713,43.0037,354.2642,272.2841,87.7854,0,U,57360,999,16264,-.49338613E-4,-.1619E-4,0
STARLINK-6340,2023-099AK,2026-06-25T13:34:52.667904,15.27579005,.00015308,43.0032,352.7831,273.3357,86.7319,0,U,57361,999,16269,.36263815E-4,.736E-5,0
STARLINK-6343,2023-099AL,2026-06-25T12:28:16.087296,15.27576426,.00010193,43.0040,352.4425,267.3003,92.7732,0,U,57362,999,16268,.8920482E-5,-.17E-6,0
STARLINK-6356,2023-099AM,2026-06-25T04:26:23.182656,15.27577147,.00011055,43.0022,354.2319,258.2661,101.8067,0,U,57363,999,16264,.10919534E-4,.38E-6,0
STARLINK-6338,2023-099AN,2026-06-25T04:43:02.175744,15.27574858,.00010536,43.0032,354.3193,272.1553,87.9178,0,U,57364,999,16263,.15310689E-4,.159E-5,0
STARLINK-5007,2023-099AP,2026-06-25T12:59:43.576512,15.27543411,.00016871,43.0064,352.5992,268.9066,91.1593,0,U,57365,999,16269,.26504101E-3,.703E-4,0
STARLINK-6174,2023-099AQ,2026-06-25T12:54:10.237536,15.27578487,.00011833,43.0039,352.5747,269.7547,90.3169,0,U,57366,999,16269,.30544062E-4,.578E-5,0
STARLINK-6215,2023-099AR,2026-06-25T12:07:29.349120,15.27594099,.00014282,43.0043,334.1963,265.1147,94.9542,0,U,57367,999,16365,.1125846E-3,.2838E-4,0
STARLINK-6218,2023-099AS,2026-06-25T13:05:16.271808,15.27591356,.00019473,43.0056,352.6340,272.1816,87.8813,0,U,57368,999,16269,.62101804E-4,.1447E-4,0
STARLINK-6168,2023-099AT,2026-06-25T12:25:22.329984,15.28959968,.00024581,43.0042,352.4290,296.0648,63.9951,0,U,57369,999,16269,.12836614E-2,.36768E-3,0
STARLINK-5353,2023-099AU,2026-06-25T13:14:29.352768,15.27594646,.00017999,43.0056,352.6788,273.7250,86.3396,0,U,57370,999,16269,.97984161E-4,.2436E-4,0
STARLINK-6032,2023-099AV,2026-06-25T12:48:37.089504,15.27577950,.00010456,43.0040,352.5494,274.0699,86.0033,0,U,57371,999,16269,.20877147E-4,.312E-5,0
STARLINK-5975,2023-099AW,2026-06-25T13:31:10.390944,15.27571821,.00014702,43.0041,352.7512,271.3291,88.7392,0,U,57372,999,16269,.84167711E-4,.2054E-4,0
STARLINK-6370,2023-099AX,2026-06-25T13:21:55.118880,15.27577638,.00019374,43.0055,352.7088,268.0776,91.9853,0,U,57373,999,16269,.41902135E-4,.891E-5,0
STARLINK-6369,2023-099AY,2026-06-25T11:45:30.477312,15.27588108,.00014373,43.0057,334.9576,266.4313,93.6374,0,U,57374,999,16289,-.25456121E-3,-.7262E-4,0
STARLINK-6363,2023-099AZ,2026-06-25T13:20:04.259040,15.27578150,.00016974,43.0059,352.7034,269.7285,90.3372,0,U,57375,999,16269,.82864243E-4,.2018E-4,0
STARLINK-6367,2023-099BA,2026-06-25T12:47:29.351040,15.27588280,.00015361,43.0035,349.1355,264.7128,95.3548,0,U,57376,999,16273,.71493738E-3,.19468E-3,0
