[
  {
    "name": "STARLINK-6378",
    "noradId": "57347",
    "line1": "1 57347U 23099V   26176.55882257 -.00001044  00000+0 -28423-4 0  9996",
    "line2": "2 57347  43.0032   6.6222 0001155 270.5264  89.5455 15.27584357162536"
  },
  {
    "name": "STARLINK-6372",
    "noradId": "57348",
    "line1": "1 57348U 23099W   26176.57266387  .00001986  00000+0  81687-4 0  9993",
    "line2": "2 57348  43.0057 359.9034 0001766 267.4790  92.5859 15.27583077162615"
  },
  {
    "name": "STARLINK-6376",
    "noradId": "57349",
    "line1": "1 57349U 23099X   26176.22257486  .00002170  00000+0  88325-4 0  9998",
    "line2": "2 57349  43.0059   1.5790 0002074 296.5791  63.4848 15.27592773163286"
  },
  {
    "name": "STARLINK-6362",
    "noradId": "57350",
    "line1": "1 57350U 23099Y   26176.55303795 -.00002783  00000+0 -91602-4 0  9995",
    "line2": "2 57350  43.0057 352.7001 0001843 272.8643  87.1998 15.27585051162681"
  },
  {
    "name": "STARLINK-6331",
    "noradId": "57351",
    "line1": "1 57351U 23099Z   26176.53410248  .00000852  00000+0  40494-4 0  9992",
    "line2": "2 57351  43.0038 359.6143 0001380 268.0209  92.0485 15.27579196162617"
  },
  {
    "name": "STARLINK-6297",
    "noradId": "57352",
    "line1": "1 57352U 23099AA  26176.54662926 -.00000607  00000+0 -12521-4 0  9996",
    "line2": "2 57352  43.0054 352.6516 0001769 274.4540  85.6109 15.27568729162692"
  },
  {
    "name": "STARLINK-6324",
    "noradId": "57353",
    "line1": "1 57353U 23099AB  26176.55594884 -.00001183  00000+0 -33459-4 0  9998",
    "line2": "2 57353  43.0056 359.7776 0001226 268.7872  91.2839 15.27583501162613"
  },
  {
    "name": "STARLINK-6293",
    "noradId": "57354",
    "line1": "1 57354U 23099AC  26176.54404177  .00000922  00000+0  43047-4 0  9995",
    "line2": "2 57354  43.0039 352.6263 0001572 270.3612  89.7059 15.27576849162694"
  },
  {
    "name": "STARLINK-6276",
    "noradId": "57355",
    "line1": "1 57355U 23099AD  26176.50176879  .00001697  00000+0  71146-4 0  9998",
    "line2": "2 57355  43.0036 353.1692 0001482 276.6718  83.3965 15.27593721162683"
  },
  {
    "name": "STARLINK-6355",
    "noradId": "57356",
    "line1": "1 57356U 23099AE  26176.49279178  .00001035  00000+0  47151-4 0  9998",
    "line2": "2 57356  43.0045 353.0999 0001585 263.1862  96.8809 15.27570934162685"
  },
  {
    "name": "STARLINK-5600",
    "noradId": "57357",
    "line1": "1 57357U 23099AF  26176.52862192  .00000731  00000+0  36093-4 0  9992",
    "line2": "2 57357  43.0045 352.5141 0001269 269.5247  90.5459 15.27580386162690"
  },
  {
    "name": "STARLINK-6299",
    "noradId": "57358",
    "line1": "1 57358U 23099AG  26176.50806306  .00001587  00000+0  67148-4 0  9991",
    "line2": "2 57358  43.0025 352.3677 0001367 263.0015  97.0681 15.27594942163437"
  },
  {
    "name": "STARLINK-6347",
    "noradId": "57359",
    "line1": "1 57359U 23099AH  26176.22227344 -.00003784  00000+0 -12810-3 0  9998",
    "line2": "2 57359  43.0051 354.5159 0002116 284.8696  75.1921 15.27560538162645"
  },
  {
    "name": "STARLINK-6348",
    "noradId": "57360",
    "line1": "1 57360U 23099AJ  26176.18884416 -.00001619  00000+0 -49339-4 0  9996",
    "line2": "2 57360  43.0037 354.2642 0001371 272.2841  87.7854 15.27568307162646"
  },
  {
    "name": "STARLINK-6340",
    "noradId": "57361",
    "line1": "1 57361U 23099AK  26176.56588736  .00000736  00000+0  36264-4 0  9995",
    "line2": "2 57361  43.0032 352.7831 0001530 273.3357  86.7319 15.27579005162693"
  },
  {
    "name": "STARLINK-6343",
    "noradId": "57362",
    "line1": "1 57362U 23099AL  26176.51963064 -.00000017  00000+0  89205-5 0  9999",
    "line2": "2 57362  43.0040 352.4425 0001019 267.3003  92.7732 15.27576426162681"
  },
  {
    "name": "STARLINK-6356",
    "noradId": "57363",
    "line1": "1 57363U 23099AM  26176.18499054  .00000038  00000+0  10920-4 0  9995",
    "line2": "2 57363  43.0022 354.2319 0001105 258.2661 101.8067 15.27577147162649"
  },
  {
    "name": "STARLINK-6338",
    "noradId": "57364",
    "line1": "1 57364U 23099AN  26176.19655296  .00000159  00000+0  15311-4 0  9992",
    "line2": "2 57364  43.0032 354.3193 0001053 272.1553  87.9178 15.27574858162631"
  },
  {
    "name": "STARLINK-5007",
    "noradId": "57365",
    "line1": "1 57365U 23099AP  26176.54147658  .00007030  00000+0  26504-3 0  9990",
    "line2": "2 57365  43.0064 352.5992 0001687 268.9066  91.1593 15.27543411162694"
  },
  {
    "name": "STARLINK-6174",
    "noradId": "57366",
    "line1": "1 57366U 23099AQ  26176.53761849  .00000578  00000+0  30544-4 0  9994",
    "line2": "2 57366  43.0039 352.5747 0001183 269.7547  90.3169 15.27578487162690"
  },
  {
    "name": "STARLINK-6215",
    "noradId": "57367",
    "line1": "1 57367U 23099AR  26176.50520080  .00002838  00000+0  11258-3 0  9993",
    "line2": "2 57367  43.0043 334.1963 0001428 265.1147  94.9542 15.27594099163659"
  },
  {
    "name": "STARLINK-6218",
    "noradId": "57368",
    "line1": "1 57368U 23099AS  26176.54532722  .00001447  00000+0  62102-4 0  9994",
    "line2": "2 57368  43.0056 352.6340 0001947 272.1816  87.8813 15.27591356162693"
  },
  {
    "name": "STARLINK-6168",
    "noradId": "57369",
    "line1": "1 57369U 23099AT  26176.51761956  .00036768  00000+0  12837-2 0  9997",
    "line2": "2 57369  43.0042 352.4290 0002458 296.0648  63.9951 15.28959968162693"
  },
  {
    "name": "STARLINK-5353",
    "noradId": "57370",
    "line1": "1 57370U 23099AU  26176.55172862  .00002436  00000+0  97984-4 0  9998",
    "line2": "2 57370  43.0056 352.6788 0001799 273.7250  86.3396 15.27594646162691"
  },
  {
    "name": "STARLINK-6032",
    "noradId": "57371",
    "line1": "1 57371U 23099AV  26176.53376261  .00000312  00000+0  20877-4 0  9994",
    "line2": "2 57371  43.0040 352.5494 0001045 274.0699  86.0033 15.27577950162697"
  },
  {
    "name": "STARLINK-5975",
    "noradId": "57372",
    "line1": "1 57372U 23099AW  26176.56331471  .00002054  00000+0  84168-4 0  9990",
    "line2": "2 57372  43.0041 352.7512 0001470 271.3291  88.7392 15.27571821162690"
  },
  {
    "name": "STARLINK-6370",
    "noradId": "57373",
    "line1": "1 57373U 23099AX  26176.55688795  .00000891  00000+0  41902-4 0  9990",
    "line2": "2 57373  43.0055 352.7088 0001937 268.0776  91.9853 15.27577638162693"
  },
  {
    "name": "STARLINK-6369",
    "noradId": "57374",
    "line1": "1 57374U 23099AY  26176.48993608 -.00007262  00000+0 -25456-3 0  9991",
    "line2": "2 57374  43.0057 334.9576 0001437 266.4313  93.6374 15.27588108162897"
  },
  {
    "name": "STARLINK-6363",
    "noradId": "57375",
    "line1": "1 57375U 23099AZ  26176.55560485  .00002018  00000+0  82864-4 0  9992",
    "line2": "2 57375  43.0059 352.7034 0001697 269.7285  90.3372 15.27578150162695"
  },
  {
    "name": "STARLINK-6367",
    "noradId": "57376",
    "line1": "1 57376U 23099BA  26176.53297860  .00019468  00000+0  71494-3 0  9998",
    "line2": "2 57376  43.0035 349.1355 0001536 264.7128  95.3548 15.27588280162739"
  }
]